{
  "norad_id": 68264,
  "name": "STARLINK-37163",
  "history": [
    {
      "epoch": "2026-04-10T12:04:12.067680Z",
      "apogee_km": 328.7610126974905,
      "perigee_km": 326.72510751124173,
      "latitude_deg": -3.722309460607088e-06,
      "longitude_deg": 158.04918607953502,
      "height_km": 328.93962015607826,
      "semi_major_axis_km": 6705.880060104366,
      "eccentricity": 0.0001518,
      "inclination_deg": 53.1577,
      "raan_deg": 177.8353,
      "arg_perigee_deg": 105.9251,
      "mean_anomaly_deg": 254.1939,
      "mean_motion_rev_day": 15.80953476
    },
    {
      "epoch": "2026-04-11T13:51:49.627008Z",
      "apogee_km": 328.569077849741,
      "perigee_km": 327.21311896824227,
      "latitude_deg": -2.8482942406594673e-05,
      "longitude_deg": 124.69815599939963,
      "height_km": 328.71369792005277,
      "semi_major_axis_km": 6706.028098408991,
      "eccentricity": 0.0001011,
      "inclination_deg": 53.1581,
      "raan_deg": 172.4501,
      "arg_perigee_deg": 81.9183,
      "mean_anomaly_deg": 278.1954,
      "mean_motion_rev_day": 15.80901126
    },
    {
      "epoch": "2026-04-12T21:43:35.217408Z",
      "apogee_km": 328.5314300058244,
      "perigee_km": 326.82010658735635,
      "latitude_deg": 4.192455046523019e-05,
      "longitude_deg": -1.2060057780408793,
      "height_km": 328.71485213484743,
      "semi_major_axis_km": 6705.812768296591,
      "eccentricity": 0.0001276,
      "inclination_deg": 53.158,
      "raan_deg": 165.7944,
      "arg_perigee_deg": 98.1647,
      "mean_anomaly_deg": 261.9521,
      "mean_motion_rev_day": 15.80977273
    },
    {
      "epoch": "2026-04-14T20:45:41.704992Z",
      "apogee_km": 327.59013739186594,
      "perigee_km": 327.18914689866597,
      "latitude_deg": -1.235641732185661e-05,
      "longitude_deg": 1.5115596541424567,
      "height_km": 328.11008513857234,
      "semi_major_axis_km": 6705.526642145266,
      "eccentricity": 2.99e-05,
      "inclination_deg": 53.1585,
      "raan_deg": 155.9707,
      "arg_perigee_deg": 7.4542,
      "mean_anomaly_deg": 352.6485,
      "mean_motion_rev_day": 15.81078465
    },
    {
      "epoch": "2026-04-15T10:25:01.304832Z",
      "apogee_km": 328.74098690949995,
      "perigee_km": 326.9388226761048,
      "latitude_deg": 4.702998384229887e-06,
      "longitude_deg": 153.2695982621075,
      "height_km": 328.1888801848538,
      "semi_major_axis_km": 6705.976904792802,
      "eccentricity": 0.00013437,
      "inclination_deg": 53.1577,
      "raan_deg": 153.1212,
      "arg_perigee_deg": 50.8541,
      "mean_anomaly_deg": 309.2601,
      "mean_motion_rev_day": 15.80919229
    },
    {
      "epoch": "2026-04-16T19:47:48.812064Z",
      "apogee_km": 328.9533215512265,
      "perigee_km": 326.5727270426014,
      "latitude_deg": 1.9370781645871773e-05,
      "longitude_deg": 4.230202816140001,
      "height_km": 328.4376056865783,
      "semi_major_axis_km": 6705.900024296914,
      "eccentricity": 0.0001775,
      "inclination_deg": 53.157,
      "raan_deg": 146.1506,
      "arg_perigee_deg": 78.2592,
      "mean_anomaly_deg": 281.863,
      "mean_motion_rev_day": 15.80946416
    },
    {
      "epoch": "2026-04-17T14:00:14.666112Z",
      "apogee_km": 328.5382741917565,
      "perigee_km": 327.1620715041454,
      "latitude_deg": -1.701460052768924e-05,
      "longitude_deg": 86.57270913205716,
      "height_km": 328.7515053455307,
      "semi_major_axis_km": 6705.987172847951,
      "eccentricity": 0.00010261,
      "inclination_deg": 53.1568,
      "raan_deg": 142.3486,
      "arg_perigee_deg": 88.6337,
      "mean_anomaly_deg": 271.4803,
      "mean_motion_rev_day": 15.80915598
    },
    {
      "epoch": "2026-04-21T20:00:01.999008Z",
      "apogee_km": 356.8853950160956,
      "perigee_km": 355.6597324754939,
      "latitude_deg": 29.741539536023332,
      "longitude_deg": -3.5841061904427165,
      "height_km": 357.5109830011602,
      "semi_major_axis_km": 6734.409563745794,
      "eccentricity": 9.1e-05,
      "inclination_deg": 53.1604,
      "raan_deg": 121.1368,
      "arg_perigee_deg": 84.8845,
      "mean_anomaly_deg": 313.3004,
      "mean_motion_rev_day": 15.70917849
    },
    {
      "epoch": "2026-04-22T20:00:03.000384Z",
      "apogee_km": 369.24669646136226,
      "perigee_km": 367.8622753684531,
      "latitude_deg": -49.240425267358475,
      "longitude_deg": -94.4931232918202,
      "height_km": 386.17205756593984,
      "semi_major_axis_km": 6746.691485914907,
      "eccentricity": 0.0001026,
      "inclination_deg": 53.1598,
      "raan_deg": 116.2143,
      "arg_perigee_deg": 117.76,
      "mean_anomaly_deg": 171.5161,
      "mean_motion_rev_day": 15.66630168
    },
    {
      "epoch": "2026-04-23T14:00:04.000032Z",
      "apogee_km": 376.2864291793385,
      "perigee_km": 374.4766212849472,
      "latitude_deg": -14.190839798385548,
      "longitude_deg": -118.24277089399438,
      "height_km": 379.55511326724724,
      "semi_major_axis_km": 6753.518525232143,
      "eccentricity": 0.00013399,
      "inclination_deg": 53.1598,
      "raan_deg": 112.5438,
      "arg_perigee_deg": 84.4814,
      "mean_anomaly_deg": 113.1381,
      "mean_motion_rev_day": 15.64255241
    },
    {
      "epoch": "2026-04-24T20:00:01.999008Z",
      "apogee_km": 387.2316125739062,
      "perigee_km": 386.29399746092986,
      "latitude_deg": 26.999043073459358,
      "longitude_deg": -24.117992632615557,
      "height_km": 387.84267190263745,
      "semi_major_axis_km": 6764.899805017418,
      "eccentricity": 6.93e-05,
      "inclination_deg": 53.1597,
      "raan_deg": 106.4431,
      "arg_perigee_deg": 103.2201,
      "mean_anomaly_deg": 291.2378,
      "mean_motion_rev_day": 15.60309343
    },
    {
      "epoch": "2026-04-25T20:00:01.000224Z",
      "apogee_km": 403.8441787039046,
      "perigee_km": 401.8220934093315,
      "latitude_deg": -46.58742376464171,
      "longitude_deg": 179.70484913911451,
      "height_km": 419.46928075375496,
      "semi_major_axis_km": 6780.970136056618,
      "eccentricity": 0.0001491,
      "inclination_deg": 53.1593,
      "raan_deg": 101.6024,
      "arg_perigee_deg": 105.4164,
      "mean_anomaly_deg": 139.3777,
      "mean_motion_rev_day": 15.54765927
    },
    {
      "epoch": "2026-04-26T22:00:00.999936Z",
      "apogee_km": 421.20805021843444,
      "perigee_km": 419.4059186870354,
      "latitude_deg": -0.21952950219295655,
      "longitude_deg": 91.64851117221481,
      "height_km": 421.1137606553764,
      "semi_major_axis_km": 6798.443984452734,
      "eccentricity": 0.00013254,
      "inclination_deg": 53.1598,
      "raan_deg": 96.4031,
      "arg_perigee_deg": 98.3877,
      "mean_anomaly_deg": 81.769,
      "mean_motion_rev_day": 15.48775524
    },
    {
      "epoch": "2026-04-27T20:00:03.000384Z",
      "apogee_km": 436.8270523219171,
      "perigee_km": 434.67931413616316,
      "latitude_deg": -47.10610873782455,
      "longitude_deg": 169.52414923454432,
      "height_km": 452.79036068264236,
      "semi_major_axis_km": 6813.890183229039,
      "eccentricity": 0.0001576,
      "inclination_deg": 53.1598,
      "raan_deg": 92.0397,
      "arg_perigee_deg": 93.2258,
      "mean_anomaly_deg": 152.6424,
      "mean_motion_rev_day": 15.43512202
    },
    {
      "epoch": "2026-04-28T20:00:01.000224Z",
      "apogee_km": 440.87420238177856,
      "perigee_km": 438.8138085219307,
      "latitude_deg": 32.02954633664177,
      "longitude_deg": -41.71825025813545,
      "height_km": 441.5323087972343,
      "semi_major_axis_km": 6817.981005451854,
      "eccentricity": 0.0001511,
      "inclination_deg": 53.1597,
      "raan_deg": 87.3088,
      "arg_perigee_deg": 111.5337,
      "mean_anomaly_deg": 289.8436,
      "mean_motion_rev_day": 15.42123238
    },
    {
      "epoch": "2026-04-29T20:00:01.999008Z",
      "apogee_km": 440.9242209742024,
      "perigee_km": 438.7792817130294,
      "latitude_deg": -13.195567900156943,
      "longitude_deg": 114.84204052930629,
      "height_km": 443.30606888060845,
      "semi_major_axis_km": 6817.988751343616,
      "eccentricity": 0.0001573,
      "inclination_deg": 53.1591,
      "raan_deg": 82.5786,
      "arg_perigee_deg": 111.0286,
      "mean_anomaly_deg": 85.3307,
      "mean_motion_rev_day": 15.4212061
    },
    {
      "epoch": "2026-04-30T14:00:01.999872Z",
      "apogee_km": 440.6270877496927,
      "perigee_km": 438.90529447780955,
      "latitude_deg": 32.85258265061574,
      "longitude_deg": 39.25371225650341,
      "height_km": 441.5123400590494,
      "semi_major_axis_km": 6817.903191113751,
      "eccentricity": 0.00012627,
      "inclination_deg": 53.1593,
      "raan_deg": 79.0318,
      "arg_perigee_deg": 102.0598,
      "mean_anomaly_deg": 300.4774,
      "mean_motion_rev_day": 15.42149639
    },
    {
      "epoch": "2026-05-02T04:42:06.376896Z",
      "apogee_km": 440.48791204261124,
      "perigee_km": 439.053424269232,
      "latitude_deg": -6.666357788944364e-05,
      "longitude_deg": 140.75935719755157,
      "height_km": 440.60059677902524,
      "semi_major_axis_km": 6817.907668155922,
      "eccentricity": 0.0001052,
      "inclination_deg": 53.1602,
      "raan_deg": 71.4034,
      "arg_perigee_deg": 84.1473,
      "mean_anomaly_deg": 275.9652,
      "mean_motion_rev_day": 15.4214812
    },
    {
      "epoch": "2026-05-03T13:21:53.368416Z",
      "apogee_km": 440.8644376886623,
      "perigee_km": 438.41958213570706,
      "latitude_deg": -5.5002187575240537e-05,
      "longitude_deg": 3.035340488762922,
      "height_km": 440.3875274118168,
      "semi_major_axis_km": 6817.779009912184,
      "eccentricity": 0.0001793,
      "inclination_deg": 53.1612,
      "raan_deg": 64.9666,
      "arg_perigee_deg": 82.6371,
      "mean_anomaly_deg": 277.4838,
      "mean_motion_rev_day": 15.42191773
    }
  ]
}